{"type": "FeatureCollection", "features": [ {"type": "Feature", "properties": {"norad_id": 66911, "name": "1998-067XX", "group": "stations", "lat": -0.1157391813132119, "lon": 139.13983761873413, "alt_km": 414.1160013090175, "timestamp": "2025-12-13T08:49:14.476529+00:00", "meta": {"OBJECT_NAME": "1998-067XX", "OBJECT_ID": "1998-067XX", "EPOCH": "2025-12-12T17:22:05.659968", "MEAN_MOTION": 15.51996459, "ECCENTRICITY": 0.0004979, "INCLINATION": 51.6296, "RA_OF_ASC_NODE": 142.4333, "ARG_OF_PERICENTER": 210.3883, "MEAN_ANOMALY": 149.6819, "EPHEMERIS_TYPE": 0, "CLASSIFICATION_TYPE": "U", "NORAD_CAT_ID": 66911, "ELEMENT_SET_NO": 999, "REV_AT_EPOCH": 160, "BSTAR": 0.0015692424, "MEAN_MOTION_DOT": 0.00096916, "MEAN_MOTION_DDOT": 0}, "tle": {"line1": "1 66911U 98067XX  25346.72367662  .00096916  00000+0  15692-2 0  9997", "line2": "2 66911  51.6296 142.4333 0004979 210.3883 149.6819 15.51996459  1607"}}, "geometry": {"type": "Point", "coordinates": [139.13983761873413, -0.1157391813132119]}}, {"type": "Feature", "properties": {"norad_id": 66912, "name": "1998-067XY", "group": "stations", "lat": -18.383500441687264, "lon": 124.01353657400601, "alt_km": 417.04156027541376, "timestamp": "2025-12-13T08:49:14.476539+00:00", "meta": {"OBJECT_NAME": "1998-067XY", "OBJECT_ID": "1998-067XY", "EPOCH": "2025-12-12T17:27:38.564352", "MEAN_MOTION": 15.5112646, "ECCENTRICITY": 0.00045766, "INCLINATION": 51.63, "RA_OF_ASC_NODE": 142.4585, "ARG_OF_PERICENTER": 223.461, "MEAN_ANOMALY": 136.6019, "EPHEMERIS_TYPE": 0, "CLASSIFICATION_TYPE": "U", "NORAD_CAT_ID": 66912, "ELEMENT_SET_NO": 999, "REV_AT_EPOCH": 160, "BSTAR": 0.0011286003, "MEAN_MOTION_DOT": 0.00067169, "MEAN_MOTION_DDOT": 0}, "tle": {"line1": "1 66912U 98067XY  25346.72752968  .00067169  00000+0  11286-2 0  9998", "line2": "2 66912  51.6300 142.4585 0004576 223.4610 136.6019 15.51126460  1604"}}, "geometry": {"type": "Point", "coordinates": [124.01353657400601, -18.383500441687264]}}]}